{
  "type": "FeatureCollection",
  "features": [
    {
      "type": "Feature",
      "properties": {
        "norad_id": 35015,
        "name": "COSMOS 2251 DEB",
        "group": "cosmos-2251-debris",
        "lat": -70.00384545932516,
        "lon": 158.61931826465056,
        "alt_km": 790.2922728894364,
        "timestamp": "2025-12-25T09:48:52.684876+00:00",
        "meta_object_name": "COSMOS 2251 DEB",
        "meta_object_id": "1993-036AGC",
        "meta_epoch": "2025-12-24T20:59:07.900800",
        "meta_mean_motion": 14.46938139,
        "meta_eccentricity": 0.0074531,
        "meta_inclination": 73.9465,
        "meta_ra_of_asc_node": 211.9291,
        "meta_arg_of_pericenter": 77.5315,
        "meta_mean_anomaly": 301.6184,
        "meta_ephemeris_type": 0,
        "meta_classification_type": "U",
        "meta_norad_cat_id": 35015,
        "meta_element_set_no": 999,
        "meta_rev_at_epoch": 65616,
        "meta_bstar": 0.00073268,
        "meta_mean_motion_dot": 2.728e-05,
        "meta_mean_motion_ddot": 0,
        "tle_line1": "1 35015U 93036AGC 25358.87439700  .00002728  00000+0  73268-3 0  9993",
        "tle_line2": "2 35015  73.9465 211.9291 0074531  77.5315 301.6184 14.46938139656168"
      },
      "geometry": {
        "type": "Point",
        "coordinates": [
          158.61931826465056,
          -70.00384545932516
        ]
      }
    },
    {
      "type": "Feature",
      "properties": {
        "norad_id": 35016,
        "name": "COSMOS 2251 DEB",
        "group": "cosmos-2251-debris",
        "lat": 52.82144256400007,
        "lon": 68.70937330575472,
        "alt_km": 729.7107300400203,
        "timestamp": "2025-12-25T09:48:52.684887+00:00",
        "meta_object_name": "COSMOS 2251 DEB",
        "meta_object_id": "1993-036AGD",
        "meta_epoch": "2025-12-21T05:33:15.838848",
        "meta_mean_motion": 14.35075882,
        "meta_eccentricity": 0.01140745,
        "meta_inclination": 73.9302,
        "meta_ra_of_asc_node": 278.7521,
        "meta_arg_of_pericenter": 193.9283,
        "meta_mean_anomaly": 317.5381,
        "meta_ephemeris_type": 0,
        "meta_classification_type": "U",
        "meta_norad_cat_id": 35016,
        "meta_element_set_no": 999,
        "meta_rev_at_epoch": 86904,
        "meta_bstar": 0.00026149228,
        "meta_mean_motion_dot": 7.75e-06,
        "meta_mean_motion_ddot": 0,
        "tle_line1": "1 35016U 93036AGD 25355.23143332  .00000775  00000+0  26149-3 0  9990",
        "tle_line2": "2 35016  73.9302 278.7521 0114074 193.9283 317.5381 14.35075882869043"
      },
      "geometry": {
        "type": "Point",
        "coordinates": [
          68.70937330575472,
          52.82144256400007
        ]
      }
    },
    {
      "type": "Feature",
      "properties": {
        "norad_id": 35018,
        "name": "COSMOS 2251 DEB",
        "group": "cosmos-2251-debris",
        "lat": 9.080366740988376,
        "lon": 91.75088821396676,
        "alt_km": 760.3554593548179,
        "timestamp": "2025-12-25T09:48:52.684897+00:00",
        "meta_object_name": "COSMOS 2251 DEB",
        "meta_object_id": "1993-036AGF",
        "meta_epoch": "2025-12-24T16:12:38.101536",
        "meta_mean_motion": 13.67138502,
        "meta_eccentricity": 0.03490652,
        "meta_inclination": 73.9764,
        "meta_ra_of_asc_node": 90.3261,
        "meta_arg_of_pericenter": 356.917,
        "meta_mean_anomaly": 2.9788,
        "meta_ephemeris_type": 0,
        "meta_classification_type": "U",
        "meta_norad_cat_id": 35018,
        "meta_element_set_no": 999,
        "meta_rev_at_epoch": 83349,
        "meta_bstar": 0.00085132295,
        "meta_mean_motion_dot": 1.064e-05,
        "meta_mean_motion_ddot": 0,
        "tle_line1": "1 35018U 93036AGF 25358.67544099  .00001064  00000+0  85132-3 0  9997",
        "tle_line2": "2 35018  73.9764  90.3261 0349065 356.9170   2.9788 13.67138502833491"
      },
      "geometry": {
        "type": "Point",
        "coordinates": [
          91.75088821396676,
          9.080366740988376
        ]
      }
    },
    {
      "type": "Feature",
      "properties": {
        "norad_id": 35020,
        "name": "COSMOS 2251 DEB",
        "group": "cosmos-2251-debris",
        "lat": 43.18962729211448,
        "lon": -169.7451142842526,
        "alt_km": 711.5992548788399,
        "timestamp": "2025-12-25T09:48:52.684907+00:00",
        "meta_object_name": "COSMOS 2251 DEB",
        "meta_object_id": "1993-036AGH",
        "meta_epoch": "2025-12-23T11:39:00.022752",
        "meta_mean_motion": 14.62820598,
        "meta_eccentricity": 0.00912637,
        "meta_inclination": 74.045,
        "meta_ra_of_asc_node": 178.3606,
        "meta_arg_of_pericenter": 289.9711,
        "meta_mean_anomaly": 69.1644,
        "meta_ephemeris_type": 0,
        "meta_classification_type": "U",
        "meta_norad_cat_id": 35020,
        "meta_element_set_no": 999,
        "meta_rev_at_epoch": 88395,
        "meta_bstar": 0.00013387504,
        "meta_mean_motion_dot": 6.91e-06,
        "meta_mean_motion_ddot": 0,
        "tle_line1": "1 35020U 93036AGH 25357.48541693  .00000691  00000+0  13388-3 0  9994",
        "tle_line2": "2 35020  74.0450 178.3606 0091263 289.9711  69.1644 14.62820598883959"
      },
      "geometry": {
        "type": "Point",
        "coordinates": [
          -169.7451142842526,
          43.18962729211448
        ]
      }
    },
    {
      "type": "Feature",
      "properties": {
        "norad_id": 35022,
        "name": "COSMOS 2251 DEB",
        "group": "cosmos-2251-debris",
        "lat": 6.340037098012484,
        "lon": -60.4674255757625,
        "alt_km": 711.6445460315335,
        "timestamp": "2025-12-25T09:48:52.684917+00:00",
        "meta_object_name": "COSMOS 2251 DEB",
        "meta_object_id": "1993-036AGK",
        "meta_epoch": "2025-12-23T05:11:29.419872",
        "meta_mean_motion": 14.6087455,
        "meta_eccentricity": 0.00462541,
        "meta_inclination": 74.028,
        "meta_ra_of_asc_node": 301.8992,
        "meta_arg_of_pericenter": 138.376,
        "meta_mean_anomaly": 222.0943,
        "meta_ephemeris_type": 0,
        "meta_classification_type": "U",
        "meta_norad_cat_id": 35022,
        "meta_element_set_no": 999,
        "meta_rev_at_epoch": 59296,
        "meta_bstar": 0.00044697282,
        "meta_mean_motion_dot": 2.19e-05,
        "meta_mean_motion_ddot": 0,
        "tle_line1": "1 35022U 93036AGK 25357.21631273  .00002190  00000+0  44697-3 0  9994",
        "tle_line2": "2 35022  74.0280 301.8992 0046254 138.3760 222.0943 14.60874550592969"
      },
      "geometry": {
        "type": "Point",
        "coordinates": [
          -60.4674255757625,
          6.340037098012484
        ]
      }
    },
    {
      "type": "Feature",
      "properties": {
        "norad_id": 35023,
        "name": "COSMOS 2251 DEB",
        "group": "cosmos-2251-debris",
        "lat": -46.68238138116959,
        "lon": 169.3561882321132,
        "alt_km": 571.6410835303441,
        "timestamp": "2025-12-25T09:48:52.684927+00:00",
        "meta_object_name": "COSMOS 2251 DEB",
        "meta_object_id": "1993-036AGL",
        "meta_epoch": "2025-12-24T23:28:31.270080",
        "meta_mean_motion": 14.95460921,
        "meta_eccentricity": 0.0033556,
        "meta_inclination": 74.0363,
        "meta_ra_of_asc_node": 187.8979,
        "meta_arg_of_pericenter": 264.0203,
        "meta_mean_anomaly": 248.2711,
        "meta_ephemeris_type": 0,
        "meta_classification_type": "U",
        "meta_norad_cat_id": 35023,
        "meta_element_set_no": 999,
        "meta_rev_at_epoch": 88462,
        "meta_bstar": 0.0015897,
        "meta_mean_motion_dot": 0.00017796,
        "meta_mean_motion_ddot": 0,
        "tle_line1": "1 35023U 93036AGL 25358.97813970  .00017796  00000+0  15897-2 0  9992",
        "tle_line2": "2 35023  74.0363 187.8979 0033556 264.0203 248.2711 14.95460921884620"
      },
      "geometry": {
        "type": "Point",
        "coordinates": [
          169.3561882321132,
          -46.68238138116959
        ]
      }
    },
    {
      "type": "Feature",
      "properties": {
        "norad_id": 35025,
        "name": "COSMOS 2251 DEB",
        "group": "cosmos-2251-debris",
        "lat": 70.54643742942892,
        "lon": 92.76405416471245,
        "alt_km": 684.0100739847867,
        "timestamp": "2025-12-25T09:48:52.684937+00:00",
        "meta_object_name": "COSMOS 2251 DEB",
        "meta_object_id": "1993-036AGN",
        "meta_epoch": "2025-12-24T02:28:58.594944",
        "meta_mean_motion": 14.7276366,
        "meta_eccentricity": 0.00856656,
        "meta_inclination": 73.9377,
        "meta_ra_of_asc_node": 40.6629,
        "meta_arg_of_pericenter": 311.0935,
        "meta_mean_anomaly": 48.2859,
        "meta_ephemeris_type": 0,
        "meta_classification_type": "U",
        "meta_norad_cat_id": 35025,
        "meta_element_set_no": 999,
        "meta_rev_at_epoch": 88810,
        "meta_bstar": 0.00042526894,
        "meta_mean_motion_dot": 2.843e-05,
        "meta_mean_motion_ddot": 0,
        "tle_line1": "1 35025U 93036AGN 25358.10345596  .00002843  00000+0  42527-3 0  9991",
        "tle_line2": "2 35025  73.9377  40.6629 0085665 311.0935  48.2859 14.72763660888105"
      },
      "geometry": {
        "type": "Point",
        "coordinates": [
          92.76405416471245,
          70.54643742942892
        ]
      }
    }
  ]
}